YAOGAN-43 01D           
1 60461U 24148D   26068.43560480  .00010676  00000+0  37766-3 0  9999
2 60461  35.0010  61.7102 0002556 326.2473  33.8080 15.28369377 87008
STARLINK-34401          
1 64757U 25147C   26068.73181365  .00018918  00000+0  64941-3 0  9997
2 64757  53.1596 242.8826 0001061  53.5782 306.5317 15.30191190 38680
